SNUGLITE                
1 43784U 18099AC  26068.67299662  .00013838  00000+0  55963-3 0  9995
2 43784  97.4003 124.0343 0001338 280.5957  79.5129 15.24835996398149
KOSEN-1                 
1 49402U 21102H   26068.93743172  .00010142  00000+0  40412-3 0  9994
2 49402  97.3334 113.0569 0013865 191.9191 168.1721 15.25323573238880
